CCSDS_OMM_VERS = 2.0
CREATION_DATE  = 
ORIGINATOR     = 

OBJECT_NAME    = ALSAT-3B
OBJECT_ID      = 2026-021A
CENTER_NAME    = EARTH
REF_FRAME      = TEME
TIME_SYSTEM    = UTC
MEAN_ELEMENT_THEORY = SGP/SGP4

EPOCH          = 2026-03-01T23:06:22.803552
MEAN_MOTION    = 15.23817084
ECCENTRICITY   = .00132984
INCLINATION    = 97.4687
RA_OF_ASC_NODE = 135.3344
ARG_OF_PERICENTER = 157.1834
MEAN_ANOMALY   = 202.9996

EPHEMERIS_TYPE = 0
CLASSIFICATION_TYPE = U
NORAD_CAT_ID   = 67646
ELEMENT_SET_NO = 999
REV_AT_EPOCH   = 454
BSTAR          = .34721988E-3
MEAN_MOTION_DOT = .8315E-4
MEAN_MOTION_DDOT = 0

CCSDS_OMM_VERS = 2.0
CREATION_DATE  = 
ORIGINATOR     = 

OBJECT_NAME    = CZ-2C R/B
OBJECT_ID      = 2026-021B
CENTER_NAME    = EARTH
REF_FRAME      = TEME
TIME_SYSTEM    = UTC
MEAN_ELEMENT_THEORY = SGP/SGP4

EPOCH          = 2026-03-01T23:11:02.381856
MEAN_MOTION    = 15.23856392
ECCENTRICITY   = .01518924
INCLINATION    = 97.6526
RA_OF_ASC_NODE = 136.2842
ARG_OF_PERICENTER = 38.1863
MEAN_ANOMALY   = 323.0017

EPHEMERIS_TYPE = 0
CLASSIFICATION_TYPE = U
NORAD_CAT_ID   = 67647
ELEMENT_SET_NO = 999
REV_AT_EPOCH   = 452
BSTAR          = .40272097E-3
MEAN_MOTION_DOT = .13408E-3
MEAN_MOTION_DDOT = 0

CCSDS_OMM_VERS = 2.0
CREATION_DATE  = 
ORIGINATOR     = 

OBJECT_NAME    = STARLINK-36719
OBJECT_ID      = 2026-022A
CENTER_NAME    = EARTH
REF_FRAME      = TEME
TIME_SYSTEM    = UTC
MEAN_ELEMENT_THEORY = SGP/SGP4

EPOCH          = 2026-03-01T15:47:48.763392
MEAN_MOTION    = 15.75233624
ECCENTRICITY   = .00016337
INCLINATION    = 97.2830
RA_OF_ASC_NODE = 94.2247
ARG_OF_PERICENTER = 63.5874
MEAN_ANOMALY   = 296.5559

EPHEMERIS_TYPE = 0
CLASSIFICATION_TYPE = U
NORAD_CAT_ID   = 67648
ELEMENT_SET_NO = 999
REV_AT_EPOCH   = 428
BSTAR          = .15326439E-2
MEAN_MOTION_DOT = .23533E-2
MEAN_MOTION_DDOT = 0

CCSDS_OMM_VERS = 2.0
CREATION_DATE  = 
ORIGINATOR     = 

OBJECT_NAME    = STARLINK-36342
OBJECT_ID      = 2026-022B
CENTER_NAME    = EARTH
REF_FRAME      = TEME
TIME_SYSTEM    = UTC
MEAN_ELEMENT_THEORY = SGP/SGP4

EPOCH          = 2026-03-01T14:15:18.984672
MEAN_MOTION    = 15.75185256
ECCENTRICITY   = .00011916
INCLINATION    = 97.2838
RA_OF_ASC_NODE = 94.1592
ARG_OF_PERICENTER = 90.4301
MEAN_ANOMALY   = 269.7101

EPHEMERIS_TYPE = 0
CLASSIFICATION_TYPE = U
NORAD_CAT_ID   = 67649
ELEMENT_SET_NO = 999
REV_AT_EPOCH   = 427
BSTAR          = .16390993E-2
MEAN_MOTION_DOT = .251644E-2
MEAN_MOTION_DDOT = 0

CCSDS_OMM_VERS = 2.0
CREATION_DATE  = 
ORIGINATOR     = 

OBJECT_NAME    = STARLINK-36703
OBJECT_ID      = 2026-022C
CENTER_NAME    = EARTH
REF_FRAME      = TEME
TIME_SYSTEM    = UTC
MEAN_ELEMENT_THEORY = SGP/SGP4

EPOCH          = 2026-03-01T15:45:16.256160
MEAN_MOTION    = 15.75193407
ECCENTRICITY   = .00011136
INCLINATION    = 97.2839
RA_OF_ASC_NODE = 94.2273
ARG_OF_PERICENTER = 83.3745
MEAN_ANOMALY   = 276.7647

EPHEMERIS_TYPE = 0
CLASSIFICATION_TYPE = U
NORAD_CAT_ID   = 67650
ELEMENT_SET_NO = 999
REV_AT_EPOCH   = 428
BSTAR          = .15156694E-2
MEAN_MOTION_DOT = .232233E-2
MEAN_MOTION_DDOT = 0

CCSDS_OMM_VERS = 2.0
CREATION_DATE  = 
ORIGINATOR     = 

OBJECT_NAME    = STARLINK-36696
OBJECT_ID      = 2026-022D
CENTER_NAME    = EARTH
REF_FRAME      = TEME
TIME_SYSTEM    = UTC
MEAN_ELEMENT_THEORY = SGP/SGP4

EPOCH          = 2026-03-01T14:11:15.766080
MEAN_MOTION    = 15.75333485
ECCENTRICITY   = .00020256
INCLINATION    = 97.2829
RA_OF_ASC_NODE = 94.1622
ARG_OF_PERICENTER = 63.9354
MEAN_ANOMALY   = 296.2120

EPHEMERIS_TYPE = 0
CLASSIFICATION_TYPE = U
NORAD_CAT_ID   = 67651
ELEMENT_SET_NO = 999
REV_AT_EPOCH   = 427
BSTAR          = .23637986E-2
MEAN_MOTION_DOT = .37047E-2
MEAN_MOTION_DDOT = 0

CCSDS_OMM_VERS = 2.0
CREATION_DATE  = 
ORIGINATOR     = 

OBJECT_NAME    = STARLINK-36699
OBJECT_ID      = 2026-022E
CENTER_NAME    = EARTH
REF_FRAME      = TEME
TIME_SYSTEM    = UTC
MEAN_ELEMENT_THEORY = SGP/SGP4

EPOCH          = 2026-03-01T15:41:42.781632
MEAN_MOTION    = 15.75191616
ECCENTRICITY   = .00012164
INCLINATION    = 97.2837
RA_OF_ASC_NODE = 94.2306
ARG_OF_PERICENTER = 91.0529
MEAN_ANOMALY   = 269.0875

EPHEMERIS_TYPE = 0
CLASSIFICATION_TYPE = U
NORAD_CAT_ID   = 67652
ELEMENT_SET_NO = 999
REV_AT_EPOCH   = 428
BSTAR          = .23834821E-2
MEAN_MOTION_DOT = .371322E-2
MEAN_MOTION_DDOT = 0

CCSDS_OMM_VERS = 2.0
CREATION_DATE  = 
ORIGINATOR     = 

OBJECT_NAME    = STARLINK-36694
OBJECT_ID      = 2026-022F
CENTER_NAME    = EARTH
REF_FRAME      = TEME
TIME_SYSTEM    = UTC
MEAN_ELEMENT_THEORY = SGP/SGP4

EPOCH          = 2026-03-01T14:07:11.476992
MEAN_MOTION    = 15.75184057
ECCENTRICITY   = .00022561
INCLINATION    = 97.2836
RA_OF_ASC_NODE = 94.1666
ARG_OF_PERICENTER = 77.6117
MEAN_ANOMALY   = 282.5400

EPHEMERIS_TYPE = 0
CLASSIFICATION_TYPE = U
NORAD_CAT_ID   = 67653
ELEMENT_SET_NO = 999
REV_AT_EPOCH   = 427
BSTAR          = .1530815E-2
MEAN_MOTION_DOT = .23453E-2
MEAN_MOTION_DDOT = 0

CCSDS_OMM_VERS = 2.0
CREATION_DATE  = 
ORIGINATOR     = 

OBJECT_NAME    = STARLINK-36620
OBJECT_ID      = 2026-022G
CENTER_NAME    = EARTH
REF_FRAME      = TEME
TIME_SYSTEM    = UTC
MEAN_ELEMENT_THEORY = SGP/SGP4

EPOCH          = 2026-03-01T12:35:11.879520
MEAN_MOTION    = 15.75323190
ECCENTRICITY   = .00014593
INCLINATION    = 97.2819
RA_OF_ASC_NODE = 94.0990
ARG_OF_PERICENTER = 56.0567
MEAN_ANOMALY   = 304.0837

EPHEMERIS_TYPE = 0
CLASSIFICATION_TYPE = U
NORAD_CAT_ID   = 67654
ELEMENT_SET_NO = 999
REV_AT_EPOCH   = 426
BSTAR          = .20937774E-2
MEAN_MOTION_DOT = .326277E-2
MEAN_MOTION_DDOT = 0

CCSDS_OMM_VERS = 2.0
CREATION_DATE  = 
ORIGINATOR     = 

OBJECT_NAME    = STARLINK-36720
OBJECT_ID      = 2026-022H
CENTER_NAME    = EARTH
REF_FRAME      = TEME
TIME_SYSTEM    = UTC
MEAN_ELEMENT_THEORY = SGP/SGP4

EPOCH          = 2026-03-01T20:10:03.319680
MEAN_MOTION    = 15.75299169
ECCENTRICITY   = .00017932
INCLINATION    = 97.2832
RA_OF_ASC_NODE = 94.4353
ARG_OF_PERICENTER = 80.0792
MEAN_ANOMALY   = 280.0676

EPHEMERIS_TYPE = 0
CLASSIFICATION_TYPE = U
NORAD_CAT_ID   = 67655
ELEMENT_SET_NO = 999
REV_AT_EPOCH   = 431
BSTAR          = .20523566E-2
MEAN_MOTION_DOT = .31922E-2
MEAN_MOTION_DDOT = 0

CCSDS_OMM_VERS = 2.0
CREATION_DATE  = 
ORIGINATOR     = 

OBJECT_NAME    = STARLINK-36688
OBJECT_ID      = 2026-022J
CENTER_NAME    = EARTH
REF_FRAME      = TEME
TIME_SYSTEM    = UTC
MEAN_ELEMENT_THEORY = SGP/SGP4

EPOCH          = 2026-03-01T15:34:36.397632
MEAN_MOTION    = 15.75177842
ECCENTRICITY   = .00023382
INCLINATION    = 97.2834
RA_OF_ASC_NODE = 94.2359
ARG_OF_PERICENTER = 64.2139
MEAN_ANOMALY   = 295.9367

EPHEMERIS_TYPE = 0
CLASSIFICATION_TYPE = U
NORAD_CAT_ID   = 67656
ELEMENT_SET_NO = 999
REV_AT_EPOCH   = 428
BSTAR          = .1253042E-2
MEAN_MOTION_DOT = .190916E-2
MEAN_MOTION_DDOT = 0

CCSDS_OMM_VERS = 2.0
CREATION_DATE  = 
ORIGINATOR     = 

OBJECT_NAME    = STARLINK-36706
OBJECT_ID      = 2026-022K
CENTER_NAME    = EARTH
REF_FRAME      = TEME
TIME_SYSTEM    = UTC
MEAN_ELEMENT_THEORY = SGP/SGP4

EPOCH          = 2026-03-01T15:32:33.963648
MEAN_MOTION    = 15.75206066
ECCENTRICITY   = .00009561
INCLINATION    = 97.2840
RA_OF_ASC_NODE = 94.2377
ARG_OF_PERICENTER = 98.6727
MEAN_ANOMALY   = 261.4646

EPHEMERIS_TYPE = 0
CLASSIFICATION_TYPE = U
NORAD_CAT_ID   = 67657
ELEMENT_SET_NO = 999
REV_AT_EPOCH   = 428
BSTAR          = .23996038E-2
MEAN_MOTION_DOT = .374202E-2
MEAN_MOTION_DDOT = 0

